{
  "type": "FeatureCollection",
  "features": [
    {
      "type": "Feature",
      "properties": {
        "norad_id": 31491,
        "name": "FENGYUN 1C DEB",
        "group": "fengyun-1c-debris",
        "lat": -59.92432668904181,
        "lon": -89.81343830686214,
        "alt_km": 807.2689579666503,
        "timestamp": "2025-12-11T05:00:26.591489+00:00",
        "meta_object_name": "FENGYUN 1C DEB",
        "meta_object_id": "1999-025BWE",
        "meta_epoch": "2025-12-06T04:59:33.394560",
        "meta_mean_motion": 14.1718589,
        "meta_eccentricity": 0.00532624,
        "meta_inclination": 99.3042,
        "meta_ra_of_asc_node": 248.5122,
        "meta_arg_of_pericenter": 286.6061,
        "meta_mean_anomaly": 72.9267,
        "meta_ephemeris_type": 0,
        "meta_classification_type": "U",
        "meta_norad_cat_id": 31491,
        "meta_element_set_no": 999,
        "meta_rev_at_epoch": 63635,
        "meta_bstar": 0.0031475615,
        "meta_mean_motion_dot": 6.393e-05,
        "meta_mean_motion_ddot": 0,
        "tle_line1": "1 31491U 99025BWE 25340.20802540  .00006393  00000+0  31476-2 0  9991",
        "tle_line2": "2 31491  99.3042 248.5122 0053262 286.6061  72.9267 14.17185890636358"
      },
      "geometry": {
        "type": "Point",
        "coordinates": [
          -89.81343830686214,
          -59.92432668904181
        ]
      }
    },
    {
      "type": "Feature",
      "properties": {
        "norad_id": 31492,
        "name": "FENGYUN 1C DEB",
        "group": "fengyun-1c-debris",
        "lat": -73.21925061461819,
        "lon": -60.04486180721586,
        "alt_km": 687.2542529070015,
        "timestamp": "2025-12-11T05:00:26.591499+00:00",
        "meta_object_name": "FENGYUN 1C DEB",
        "meta_object_id": "1999-025BWF",
        "meta_epoch": "2025-12-10T09:53:03.366528",
        "meta_mean_motion": 14.70612002,
        "meta_eccentricity": 0.00645436,
        "meta_inclination": 98.8575,
        "meta_ra_of_asc_node": 150.2296,
        "meta_arg_of_pericenter": 16.0386,
        "meta_mean_anomaly": 344.2842,
        "meta_ephemeris_type": 0,
        "meta_classification_type": "U",
        "meta_norad_cat_id": 31492,
        "meta_element_set_no": 999,
        "meta_rev_at_epoch": 96472,
        "meta_bstar": 0.0048558961,
        "meta_mean_motion_dot": 0.00030563,
        "meta_mean_motion_ddot": 0,
        "tle_line1": "1 31492U 99025BWF 25344.41184452  .00030563  00000+0  48559-2 0  9990",
        "tle_line2": "2 31492  98.8575 150.2296 0064543  16.0386 344.2842 14.70612002964722"
      },
      "geometry": {
        "type": "Point",
        "coordinates": [
          -60.04486180721586,
          -73.21925061461819
        ]
      }
    },
    {
      "type": "Feature",
      "properties": {
        "norad_id": 31493,
        "name": "FENGYUN 1C DEB",
        "group": "fengyun-1c-debris",
        "lat": -76.31408400547978,
        "lon": -21.768841908871234,
        "alt_km": 938.6818388522688,
        "timestamp": "2025-12-11T05:00:26.591509+00:00",
        "meta_object_name": "FENGYUN 1C DEB",
        "meta_object_id": "1999-025BWG",
        "meta_epoch": "2025-12-10T01:49:08.446944",
        "meta_mean_motion": 13.92961332,
        "meta_eccentricity": 0.0116966,
        "meta_inclination": 100.1358,
        "meta_ra_of_asc_node": 289.7193,
        "meta_arg_of_pericenter": 182.7009,
        "meta_mean_anomaly": 177.3529,
        "meta_ephemeris_type": 0,
        "meta_classification_type": "U",
        "meta_norad_cat_id": 31493,
        "meta_element_set_no": 999,
        "meta_rev_at_epoch": 59829,
        "meta_bstar": 0.0011569896,
        "meta_mean_motion_dot": 1.538e-05,
        "meta_mean_motion_ddot": 0,
        "tle_line1": "1 31493U 99025BWG 25344.07579221  .00001538  00000+0  11570-2 0  9998",
        "tle_line2": "2 31493 100.1358 289.7193 0116966 182.7009 177.3529 13.92961332598291"
      },
      "geometry": {
        "type": "Point",
        "coordinates": [
          -21.768841908871234,
          -76.31408400547978
        ]
      }
    },
    {
      "type": "Feature",
      "properties": {
        "norad_id": 31495,
        "name": "FENGYUN 1C DEB",
        "group": "fengyun-1c-debris",
        "lat": -80.38952374207689,
        "lon": -33.244056796808174,
        "alt_km": 799.8684459230344,
        "timestamp": "2025-12-11T05:00:26.591519+00:00",
        "meta_object_name": "FENGYUN 1C DEB",
        "meta_object_id": "1999-025BWJ",
        "meta_epoch": "2025-12-10T09:16:50.784096",
        "meta_mean_motion": 14.29184839,
        "meta_eccentricity": 0.00253466,
        "meta_inclination": 99.1197,
        "meta_ra_of_asc_node": 217.4548,
        "meta_arg_of_pericenter": 185.1122,
        "meta_mean_anomaly": 174.9804,
        "meta_ephemeris_type": 0,
        "meta_classification_type": "U",
        "meta_norad_cat_id": 31495,
        "meta_element_set_no": 999,
        "meta_rev_at_epoch": 63357,
        "meta_bstar": 0.0018744955,
        "meta_mean_motion_dot": 4.73e-05,
        "meta_mean_motion_ddot": 0,
        "tle_line1": "1 31495U 99025BWJ 25344.38669889  .00004730  00000+0  18745-2 0  9992",
        "tle_line2": "2 31495  99.1197 217.4548 0025346 185.1122 174.9804 14.29184839633577"
      },
      "geometry": {
        "type": "Point",
        "coordinates": [
          -33.244056796808174,
          -80.38952374207689
        ]
      }
    },
    {
      "type": "Feature",
      "properties": {
        "norad_id": 31497,
        "name": "FENGYUN 1C DEB",
        "group": "fengyun-1c-debris",
        "lat": 6.678826499993849,
        "lon": -32.182965597002784,
        "alt_km": 649.4353995838856,
        "timestamp": "2025-12-11T05:00:26.591529+00:00",
        "meta_object_name": "FENGYUN 1C DEB",
        "meta_object_id": "1999-025BWL",
        "meta_epoch": "2025-12-08T05:18:08.352864",
        "meta_mean_motion": 14.39210604,
        "meta_eccentricity": 0.01681658,
        "meta_inclination": 98.3696,
        "meta_ra_of_asc_node": 325.8872,
        "meta_arg_of_pericenter": 356.7424,
        "meta_mean_anomaly": 18.6105,
        "meta_ephemeris_type": 0,
        "meta_classification_type": "U",
        "meta_norad_cat_id": 31497,
        "meta_element_set_no": 999,
        "meta_rev_at_epoch": 97490,
        "meta_bstar": 0.00052392956,
        "meta_mean_motion_dot": 1.867e-05,
        "meta_mean_motion_ddot": 0,
        "tle_line1": "1 31497U 99025BWL 25342.22093001  .00001867  00000+0  52393-3 0  9998",
        "tle_line2": "2 31497  98.3696 325.8872 0168165 356.7424  18.6105 14.39210604974900"
      },
      "geometry": {
        "type": "Point",
        "coordinates": [
          -32.182965597002784,
          6.678826499993849
        ]
      }
    },
    {
      "type": "Feature",
      "properties": {
        "norad_id": 31498,
        "name": "FENGYUN 1C DEB",
        "group": "fengyun-1c-debris",
        "lat": -81.42285974575323,
        "lon": 38.517892808500534,
        "alt_km": 1064.626035897868,
        "timestamp": "2025-12-11T05:00:26.591539+00:00",
        "meta_object_name": "FENGYUN 1C DEB",
        "meta_object_id": "1999-025BWM",
        "meta_epoch": "2025-12-07T09:01:34.731552",
        "meta_mean_motion": 13.76971879,
        "meta_eccentricity": 0.02184706,
        "meta_inclination": 98.4853,
        "meta_ra_of_asc_node": 313.3091,
        "meta_arg_of_pericenter": 159.5169,
        "meta_mean_anomaly": 201.4915,
        "meta_ephemeris_type": 0,
        "meta_classification_type": "U",
        "meta_norad_cat_id": 31498,
        "meta_element_set_no": 999,
        "meta_rev_at_epoch": 92660,
        "meta_bstar": 0.0019980316,
        "meta_mean_motion_dot": 2.314e-05,
        "meta_mean_motion_ddot": 0,
        "tle_line1": "1 31498U 99025BWM 25341.37609643  .00002314  00000+0  19980-2 0  9991",
        "tle_line2": "2 31498  98.4853 313.3091 0218470 159.5169 201.4915 13.76971879926605"
      },
      "geometry": {
        "type": "Point",
        "coordinates": [
          38.517892808500534,
          -81.42285974575323
        ]
      }
    },
    {
      "type": "Feature",
      "properties": {
        "norad_id": 31503,
        "name": "FENGYUN 1C DEB",
        "group": "fengyun-1c-debris",
        "lat": -64.81296666611583,
        "lon": -126.63954877950253,
        "alt_km": 830.8491939504547,
        "timestamp": "2025-12-11T05:00:26.591549+00:00",
        "meta_object_name": "FENGYUN 1C DEB",
        "meta_object_id": "1999-025BWS",
        "meta_epoch": "2025-12-07T08:28:57.805248",
        "meta_mean_motion": 14.22556904,
        "meta_eccentricity": 0.00490467,
        "meta_inclination": 100.0987,
        "meta_ra_of_asc_node": 206.6798,
        "meta_arg_of_pericenter": 202.0276,
        "meta_mean_anomaly": 157.879,
        "meta_ephemeris_type": 0,
        "meta_classification_type": "U",
        "meta_norad_cat_id": 31503,
        "meta_element_set_no": 999,
        "meta_rev_at_epoch": 64170,
        "meta_bstar": 0.0017221681,
        "meta_mean_motion_dot": 3.84e-05,
        "meta_mean_motion_ddot": 0,
        "tle_line1": "1 31503U 99025BWS 25341.35344682  .00003840  00000+0  17222-2 0  9997",
        "tle_line2": "2 31503 100.0987 206.6798 0049046 202.0276 157.8790 14.22556904641702"
      },
      "geometry": {
        "type": "Point",
        "coordinates": [
          -126.63954877950253,
          -64.81296666611583
        ]
      }
    }
  ]
}